[{"OBJECT_NAME":"LAPAN-A3","OBJECT_ID":"2016-040E","EPOCH":"2026-03-09T23:01:57.724896","MEAN_MOTION":15.3238951,"ECCENTRICITY":0.00109839,"INCLINATION":97.1488,"RA_OF_ASC_NODE":68.4254,"ARG_OF_PERICENTER":22.062,"MEAN_ANOMALY":338.1093,"EPHEMERIS_TYPE":0,"CLASSIFICATION_TYPE":"U","NORAD_CAT_ID":41603,"ELEMENT_SET_NO":999,"REV_AT_EPOCH":53961,"BSTAR":0.00017567445,"MEAN_MOTION_DOT":5.428e-5,"MEAN_MOTION_DDOT":0},{"OBJECT_NAME":"STARLINK-31643","OBJECT_ID":"2024-062Q","EPOCH":"2026-03-09T21:57:01.989504","MEAN_MOTION":15.30192367,"ECCENTRICITY":0.00012803,"INCLINATION":53.1592,"RA_OF_ASC_NODE":254.7707,"ARG_OF_PERICENTER":112.2795,"MEAN_ANOMALY":247.8342,"EPHEMERIS_TYPE":0,"CLASSIFICATION_TYPE":"U","NORAD_CAT_ID":59388,"ELEMENT_SET_NO":999,"REV_AT_EPOCH":10970,"BSTAR":3.037579e-6,"MEAN_MOTION_DOT":-2.69e-6,"MEAN_MOTION_DDOT":0}]
